NORAD_CAT_ID,OBJECT_NAME,OBJECT_TYPE,EPOCH,MEAN_MOTION,ECCENTRICITY,INCLINATION,RA_OF_ASC_NODE,ARG_OF_PERICENTER,MEAN_ANOMALY,BSTAR,MEAN_MOTION_DOT,MEAN_MOTION_DDOT,TLE_LINE0,TLE_LINE1,TLE_LINE2,SEMIMAJOR_AXIS,PERIOD,APOGEE,PERIGEE,DECAYED
49457.0,STARLINK-3132,PAYLOAD,2022-07-14 02:51:14,15.08829897,0.0002693,53.2194,90.243,68.627,291.501,-3.67e-05,-8.72e-06,0.0,0 STARLINK-3132,1 49457U 21104BB  22195.11891563 -.00000872  00000-0 -36700-4 0  9999,2 49457  53.2194  90.2430 0002693  68.6270 291.5010 15.08829897 37300,6917.911,95.438,541.639,537.913,0.0
49457.0,STARLINK-3132,PAYLOAD,2022-07-14 20:20:29,15.0882607,0.0002714,53.2193,86.9727,70.0817,290.0467,-9.9196e-05,-1.866e-05,0.0,0 STARLINK-3132,1 49457U 21104BB  22195.84756172 -.00001866  00000-0 -99196-4 0  9997,2 49457  53.2193  86.9727 0002714  70.0817 290.0467 15.08826070 37410,6917.9230000000025,95.438,541.665,537.91,0.0
49457.0,STARLINK-3132,PAYLOAD,2022-07-14 23:31:15,15.08825591,0.0002687,53.2193,86.3779,70.4296,289.6986,-9.8882e-05,-1.861e-05,0.0,0 STARLINK-3132,1 49457U 21104BB  22195.98004297 -.00001861  00000-0 -98882-4 0  9992,2 49457  53.2193  86.3779 0002687  70.4296 289.6986 15.08825591 37434,6917.924,95.438,541.648,537.931,0.0
49457.0,STARLINK-3132,PAYLOAD,2022-07-15 20:11:16,15.08829453,0.0002572,53.2193,82.5123,69.8821,290.2447,0.00011378,1.522e-05,0.0,0 STARLINK-3132,1 49457U 21104BB  22196.84115857  .00001522  00000-0  11378-3 0  9999,2 49457  53.2193  82.5123 0002572  69.8821 290.2447 15.08829453 37569,6917.913000000001,95.438,541.557,537.998,0.0
49457.0,STARLINK-3132,PAYLOAD,2022-07-15 23:22:02,15.08833969,0.0002581,53.2193,81.9177,70.0736,290.0534,0.00014934,2.089e-05,0.0,0 STARLINK-3132,1 49457U 21104BB  22196.97363609  .00002089  00000-0  14934-3 0  9993,2 49457  53.2193  81.9177 0002581  70.0736 290.0534 15.08833969 38653,6917.899,95.438,541.549,537.9780000000002,0.0
49457.0,STARLINK-3132,PAYLOAD,2022-07-16 08:54:20,15.08843279,0.0002581,53.2194,80.1334,70.4567,289.6704,0.00021559,3.145e-05,0.0,0 STARLINK-3132,1 49457U 21104BB  22197.37107016  .00003145  00000-0  21559-3 0  9991,2 49457  53.2194  80.1334 0002581  70.4567 289.6704 15.08843279 38711,6917.87,95.437,541.521,537.95,0.0
49457.0,STARLINK-3132,PAYLOAD,2022-07-16 20:02:02,15.08836804,0.0002521,53.2194,78.0519,71.3788,288.7478,0.0002134,3.109e-05,0.0,0 STARLINK-3132,1 49457U 21104BB  22197.83475572  .00003109  00000-0  21340-3 0  9995,2 49457  53.2194  78.0519 0002521  71.3788 288.7478 15.08836804 38782,6917.89,95.438,541.499,538.011,0.0
49457.0,STARLINK-3132,PAYLOAD,2022-07-16 21:37:26,15.08837037,0.000252,53.2194,77.7546,71.4481,288.6784,0.00021773,3.178e-05,0.0,0 STARLINK-3132,1 49457U 21104BB  22197.90099644  .00003178  00000-0  21773-3 0  9991,2 49457  53.2194  77.7546 0002520  71.4481 288.6784 15.08837037 37729,6917.889,95.438,541.498,538.011,0.0
49457.0,STARLINK-3132,PAYLOAD,2022-07-17 00:48:12,15.08829916,0.0002512,53.2194,77.1606,75.7153,284.4118,0.00014016,1.942e-05,0.0,0 STARLINK-3132,1 49457U 21104BB  22198.03348343  .00001942  00000-0  14016-3 0  9998,2 49457  53.2194  77.1606 0002512  75.7153 284.4118 15.08829916 38817,6917.911,95.438,541.514,538.038,0.0
49457.0,STARLINK-3132,PAYLOAD,2022-07-17 08:45:08,15.08834179,0.0002446,53.2193,75.6737,70.8031,289.3226,0.00012049,1.629e-05,0.0,0 STARLINK-3132,1 49457U 21104BB  22198.36468218  .00001629  00000-0  12049-3 0  9994,2 49457  53.2193  75.6737 0002446  70.8031 289.3226 15.08834179 37798,6917.898,95.438,541.455,538.071,0.0
49457.0,STARLINK-3132,PAYLOAD,2022-07-18 08:35:55,15.088458,0.0002367,53.22,71.2128,71.9464,288.1785,-5.6134e-07,-2.97e-06,0.0,0 STARLINK-3132,1 49457U 21104BB  22199.35827812 -.00000297  00000-0 -56134-6 0  9991,2 49457  53.2200  71.2128 0002367  71.9464 288.1785 15.08845800 39014,6917.863,95.437,541.365,538.09,0.0
49457.0,STARLINK-3132,PAYLOAD,2022-07-18 21:19:00,15.08836688,0.0002326,53.2196,68.8336,72.7195,287.4052,-5.431e-06,-3.75e-06,0.0,0 STARLINK-3132,1 49457U 21104BB  22199.88820413 -.00000375  00000-0 -54310-5 0  9999,2 49457  53.2196  68.8336 0002326  72.7195 287.4052 15.08836688 38029,6917.891,95.438,541.365,538.146,0.0
49457.0,STARLINK-3132,PAYLOAD,2022-07-19 00:29:47,15.08837466,0.0002228,53.2195,68.2388,69.3182,290.8049,1.814e-05,0.0,0.0,0 STARLINK-3132,1 49457U 21104BB  22200.02068331  .00000000  00000-0  18140-4 0  9994,2 49457  53.2195  68.2388 0002228  69.3182 290.8049 15.08837466 39118,6917.888000000001,95.438,541.294,538.212,0.0
49457.0,STARLINK-3132,PAYLOAD,2022-07-19 08:26:42,15.08838064,0.0002207,53.2196,66.7525,72.2783,287.845,0.00016929,2.407e-05,0.0,0 STARLINK-3132,1 49457U 21104BB  22200.35187997  .00002407  00000-0  16929-3 0  9995,2 49457  53.2196  66.7525 0002207  72.2783 287.8450 15.08838064 38095,6917.886,95.438,541.278,538.225,0.0
49457.0,STARLINK-3132,PAYLOAD,2022-07-19 19:34:23,15.08847651,0.0002093,53.2193,64.6709,72.4419,287.6802,0.00017205,2.452e-05,0.0,0 STARLINK-3132,1 49457U 21104BB  22200.81555291  .00002452  00000-0  17205-3 0  9990,2 49457  53.2193  64.6709 0002093  72.4419 287.6802 15.08847651 39232,6917.857,95.437,541.17,538.274,0.0
49457.0,STARLINK-3132,PAYLOAD,2022-07-19 21:09:47,15.08844695,0.0002107,53.2198,64.3736,72.7911,287.3311,0.00016554,2.348e-05,0.0,0 STARLINK-3132,1 49457U 21104BB  22200.88179496  .00002348  00000-0  16554-3 0  9996,2 49457  53.2198  64.3736 0002107  72.7911 287.3311 15.08844695 38179,6917.866,95.437,541.189,538.273,0.0
49457.0,STARLINK-3132,PAYLOAD,2022-07-20 08:17:29,15.0884391,0.0002098,53.2189,62.292,71.8335,288.2885,0.00016034,2.265e-05,0.0,0 STARLINK-3132,1 49457U 21104BB  22201.34547720  .00002265  00000-0  16034-3 0  9998,2 49457  53.2189  62.2920 0002098  71.8335 288.2885 15.08843910 38243,6917.868,95.437,541.185,538.2819999999998,0.0
49457.0,STARLINK-3132,PAYLOAD,2022-07-20 21:00:34,15.08842855,0.000204,53.219,59.9134,71.5102,288.6112,0.0001382,1.912e-05,0.0,0 STARLINK-3132,1 49457U 21104BB  22201.87539724  .00001912  00000-0  13820-3 0  9999,2 49457  53.2190  59.9134 0002040  71.5102 288.6112 15.08842855 38324,6917.871999999999,95.437,541.148,538.325,0.0
49457.0,STARLINK-3132,PAYLOAD,2022-07-21 00:11:20,15.08836986,0.0002089999999999,53.2191,59.3196,70.4141,289.7076,5.361e-05,5.65e-06,0.0,0 STARLINK-3132,1 49457U 21104BB  22202.00788038  .00000565  00000-0  53610-4 0  9994,2 49457  53.2191  59.3196 0002090  70.4141 289.7076 15.08836986 39413,6917.89,95.438,541.2,538.309,0.0
49457.0,STARLINK-3132,PAYLOAD,2022-07-21 08:08:16,15.08835193,0.0002048,53.2197,57.8329,70.896,289.2254,3.9834e-06,-2.25e-06,0.0,0 STARLINK-3132,1 49457U 21104BB  22202.33908435 -.00000225  00000-0  39834-5 0  9992,2 49457  53.2197  57.8329 0002048  70.8960 289.2254 15.08835193 38394,6917.895,95.438,541.177,538.3430000000002,0.0
49457.0,STARLINK-3132,PAYLOAD,2022-07-21 20:51:21,15.08847487,0.0001906999999999,53.2193,55.4527,71.973,288.147,1.164e-05,-1.03e-06,0.0,0 STARLINK-3132,1 49457U 21104BB  22202.86899458 -.00000103  00000-0  11640-4 0  9993,2 49457  53.2193  55.4527 0001907  71.9730 288.1470 15.08847487 38470,6917.858,95.437,541.0419999999998,538.403,0.0
49457.0,STARLINK-3132,PAYLOAD,2022-07-22 00:02:07,15.08846196,0.0001936,53.219,54.8585,67.7168,292.403,6.004299999999999e-06,-1.93e-06,0.0,0 STARLINK-3132,1 49457U 21104BB  22203.00147546 -.00000193  00000-0  60043-5 0  9995,2 49457  53.2190  54.8585 0001936  67.7168 292.4030 15.08846196 39561,6917.861,95.437,541.066,538.387,0.0
49457.0,STARLINK-3132,PAYLOAD,2022-07-22 20:42:08,15.0884157,0.0001876999999999,53.2192,50.9936,69.5005,290.6188,8.835700000000001e-05,1.118e-05,0.0,0 STARLINK-3132,1 49457U 21104BB  22203.86259784  .00001118  00000-0  88357-4 0  9991,2 49457  53.2192  50.9936 0001877  69.5005 290.6188 15.08841570 38625,6917.876,95.437,541.039,538.442,0.0
49457.0,STARLINK-3132,PAYLOAD,2022-07-23 06:14:26,15.08848381,0.000202,53.2184,49.2078,59.8308,300.2884,9.5516e-05,1.233e-05,0.0,0 STARLINK-3132,1 49457U 21104BB  22204.26003249  .00001233  00000-0  95516-4 0  9992,2 49457  53.2184  49.2078 0002020  59.8308 300.2884 15.08848381 38687,6917.855,95.437,541.117,538.322,0.0
49457.0,STARLINK-3132,PAYLOAD,2022-07-23 20:32:55,15.08834012,0.0001659,53.221,46.5354,69.5785,290.5385,4.9397e-05,4.98e-06,0.0,0 STARLINK-3132,1 49457U 21104BB  22204.85620315  .00000498  00000-0  49397-4 0  9994,2 49457  53.2210  46.5354 0001659  69.5785 290.5385 15.08834012 39840,6917.899,95.438,540.911,538.616,0.0
49457.0,STARLINK-3132,PAYLOAD,2022-07-24 06:05:14,15.08840972,0.0001647,53.2194,44.7485,68.5393,291.5775,6.5572e-05,7.56e-06,0.0,0 STARLINK-3132,1 49457U 21104BB  22205.25363806  .00000756  00000-0  65572-4 0  9998,2 49457  53.2194  44.7485 0001647  68.5393 291.5775 15.08840972 38831,6917.877,95.437,540.882,538.6030000000002,0.0
49457.0,STARLINK-3132,PAYLOAD,2022-07-24 20:23:43,15.08838741,0.0001716,53.2201,42.0726,69.2793,290.8383,-0.00010845,-2.014e-05,0.0,0 STARLINK-3132,1 49457U 21104BB  22205.84980687 -.00002014  00000-0 -10845-3 0  9998,2 49457  53.2201  42.0726 0001716  69.2793 290.8383 15.08838741 39994,6917.884,95.438,540.936,538.562,0.0
49457.0,STARLINK-3132,PAYLOAD,2022-07-25 13:52:57,15.08833003,0.0001674,53.2203,38.8016,68.3552,291.7618,8.883e-05,1.126e-05,0.0,0 STARLINK-3132,1 49457U 21104BB  22206.57844648  .00001126  00000-0  88830-4 0  9996,2 49457  53.2203  38.8016 0001674  68.3552 291.7618 15.08833003 39039,6917.901999999999,95.438,540.925,538.609,0.0
49457.0,STARLINK-3132,PAYLOAD,2022-07-26 05:46:48,15.08842295,0.0001693,53.2203,35.8281,68.7616,291.3557,8.5696e-05,1.076e-05,0.0,0 STARLINK-3132,1 49457U 21104BB  22207.24084202  .00001076  00000-0  85696-4 0  9994,2 49457  53.2203  35.8281 0001693  68.7616 291.3557 15.08842295 40208,6917.873000000001,95.437,540.91,538.567,0.0
